{
  "type": "FeatureCollection",
  "features": [
    {
      "type": "Feature",
      "properties": {
        "norad_id": 28899,
        "name": "INMARSAT 4-F2 (SOUTHPAN/PRN 122)",
        "group": "gnss",
        "lat": 4.510733831604258,
        "lon": 111.71556120921157,
        "alt_km": 35797.236563344864,
        "timestamp": "2025-12-05T16:54:14.894040+00:00",
        "meta_object_name": "INMARSAT 4-F2 (SOUTHPAN/PRN 122)",
        "meta_object_id": "2005-044A",
        "meta_epoch": "2025-12-04T14:24:30.690144",
        "meta_mean_motion": 1.0027192,
        "meta_eccentricity": 0.00034581,
        "meta_inclination": 4.841,
        "meta_ra_of_asc_node": 43.6637,
        "meta_arg_of_pericenter": 210.8827,
        "meta_mean_anomaly": 178.752,
        "meta_ephemeris_type": 0,
        "meta_classification_type": "U",
        "meta_norad_cat_id": 28899,
        "meta_element_set_no": 999,
        "meta_rev_at_epoch": 7357,
        "meta_bstar": 0,
        "meta_mean_motion_dot": -2.49e-06,
        "meta_mean_motion_ddot": 0,
        "tle_line1": "1 28899U 05044A   25338.60035521 -.00000249  00000+0  00000+0 0  9996",
        "tle_line2": "2 28899   4.8410  43.6637 0003458 210.8827 178.7520  1.00271920 73576"
      },
      "geometry": {
        "type": "Point",
        "coordinates": [
          111.71556120921157,
          4.510733831604258
        ]
      }
    },
    {
      "type": "Feature",
      "properties": {
        "norad_id": 29486,
        "name": "GPS BIIRM-2 (PRN 31)",
        "group": "gnss",
        "lat": 47.3087980122616,
        "lon": -71.2224222218085,
        "alt_km": 20049.281597192898,
        "timestamp": "2025-12-05T16:54:14.894053+00:00",
        "meta_object_name": "GPS BIIRM-2 (PRN 31)",
        "meta_object_id": "2006-042A",
        "meta_epoch": "2025-12-04T13:13:00.041088",
        "meta_mean_motion": 2.00554363,
        "meta_eccentricity": 0.0107357,
        "meta_inclination": 54.6929,
        "meta_ra_of_asc_node": 159.0658,
        "meta_arg_of_pericenter": 51.7626,
        "meta_mean_anomaly": 309.8697,
        "meta_ephemeris_type": 0,
        "meta_classification_type": "U",
        "meta_norad_cat_id": 29486,
        "meta_element_set_no": 999,
        "meta_rev_at_epoch": 14049,
        "meta_bstar": 0,
        "meta_mean_motion_dot": 8.8e-07,
        "meta_mean_motion_ddot": 0,
        "tle_line1": "1 29486U 06042A   25338.55069492  .00000088  00000+0  00000+0 0  9996",
        "tle_line2": "2 29486  54.6929 159.0658 0107357  51.7626 309.8697  2.00554363140498"
      },
      "geometry": {
        "type": "Point",
        "coordinates": [
          -71.2224222218085,
          47.3087980122616
        ]
      }
    },
    {
      "type": "Feature",
      "properties": {
        "norad_id": 29601,
        "name": "GPS BIIRM-3 (PRN 12)",
        "group": "gnss",
        "lat": 5.949758660825048,
        "lon": 37.497406930064265,
        "alt_km": 20160.090646192453,
        "timestamp": "2025-12-05T16:54:14.894065+00:00",
        "meta_object_name": "GPS BIIRM-3 (PRN 12)",
        "meta_object_id": "2006-052A",
        "meta_epoch": "2025-12-04T23:15:57.837888",
        "meta_mean_motion": 2.00572904,
        "meta_eccentricity": 0.00875961,
        "meta_inclination": 54.9722,
        "meta_ra_of_asc_node": 221.7066,
        "meta_arg_of_pericenter": 87.3581,
        "meta_mean_anomaly": 273.7369,
        "meta_ephemeris_type": 0,
        "meta_classification_type": "U",
        "meta_norad_cat_id": 29601,
        "meta_element_set_no": 999,
        "meta_rev_at_epoch": 13951,
        "meta_bstar": 0,
        "meta_mean_motion_dot": 5.8e-07,
        "meta_mean_motion_ddot": 0,
        "tle_line1": "1 29601U 06052A   25338.96941942  .00000058  00000+0  00000+0 0  9997",
        "tle_line2": "2 29601  54.9722 221.7066 0087596  87.3581 273.7369  2.00572904139515"
      },
      "geometry": {
        "type": "Point",
        "coordinates": [
          37.497406930064265,
          5.949758660825048
        ]
      }
    },
    {
      "type": "Feature",
      "properties": {
        "norad_id": 32260,
        "name": "GPS BIIRM-4 (PRN 15)",
        "group": "gnss",
        "lat": -37.86329197119528,
        "lon": 53.602803033327625,
        "alt_km": 20488.40516703875,
        "timestamp": "2025-12-05T16:54:14.894077+00:00",
        "meta_object_name": "GPS BIIRM-4 (PRN 15)",
        "meta_object_id": "2007-047A",
        "meta_epoch": "2025-12-05T06:35:49.168896",
        "meta_mean_motion": 2.0056471,
        "meta_eccentricity": 0.01643532,
        "meta_inclination": 53.9502,
        "meta_ra_of_asc_node": 88.0669,
        "meta_arg_of_pericenter": 85.1619,
        "meta_mean_anomaly": 276.6895,
        "meta_ephemeris_type": 0,
        "meta_classification_type": "U",
        "meta_norad_cat_id": 32260,
        "meta_element_set_no": 999,
        "meta_rev_at_epoch": 13292,
        "meta_bstar": 0,
        "meta_mean_motion_dot": -2.6e-07,
        "meta_mean_motion_ddot": 0,
        "tle_line1": "1 32260U 07047A   25339.27487464 -.00000026  00000+0  00000+0 0  9992",
        "tle_line2": "2 32260  53.9502  88.0669 0164353  85.1619 276.6895  2.00564710132923"
      },
      "geometry": {
        "type": "Point",
        "coordinates": [
          53.602803033327625,
          -37.86329197119528
        ]
      }
    },
    {
      "type": "Feature",
      "properties": {
        "norad_id": 32275,
        "name": "COSMOS 2433 (720)",
        "group": "gnss",
        "lat": 65.30379123281809,
        "lon": 62.96441601051578,
        "alt_km": 19135.90355473574,
        "timestamp": "2025-12-05T16:54:14.894089+00:00",
        "meta_object_name": "COSMOS 2433 (720)",
        "meta_object_id": "2007-052A",
        "meta_epoch": "2025-12-05T02:41:16.124352",
        "meta_mean_motion": 2.13103909,
        "meta_eccentricity": 0.00055104,
        "meta_inclination": 65.6874,
        "meta_ra_of_asc_node": 322.462,
        "meta_arg_of_pericenter": 252.9111,
        "meta_mean_anomaly": 107.0273,
        "meta_ephemeris_type": 0,
        "meta_classification_type": "U",
        "meta_norad_cat_id": 32275,
        "meta_element_set_no": 999,
        "meta_rev_at_epoch": 14092,
        "meta_bstar": 0,
        "meta_mean_motion_dot": -4.7e-07,
        "meta_mean_motion_ddot": 0,
        "tle_line1": "1 32275U 07052A   25339.11199218 -.00000047  00000+0  00000+0 0  9997",
        "tle_line2": "2 32275  65.6874 322.4620 0005510 252.9111 107.0273  2.13103909140922"
      },
      "geometry": {
        "type": "Point",
        "coordinates": [
          62.96441601051578,
          65.30379123281809
        ]
      }
    },
    {
      "type": "Feature",
      "properties": {
        "norad_id": 32276,
        "name": "COSMOS 2432 (719)",
        "group": "gnss",
        "lat": 34.98939846354627,
        "lon": -19.00999910119153,
        "alt_km": 19124.495852239386,
        "timestamp": "2025-12-05T16:54:14.894100+00:00",
        "meta_object_name": "COSMOS 2432 (719)",
        "meta_object_id": "2007-052B",
        "meta_epoch": "2025-12-04T17:08:15.006912",
        "meta_mean_motion": 2.13103047,
        "meta_eccentricity": 0.00112577,
        "meta_inclination": 65.7035,
        "meta_ra_of_asc_node": 322.5994,
        "meta_arg_of_pericenter": 311.684,
        "meta_mean_anomaly": 47.4656,
        "meta_ephemeris_type": 0,
        "meta_classification_type": "U",
        "meta_norad_cat_id": 32276,
        "meta_element_set_no": 999,
        "meta_rev_at_epoch": 14093,
        "meta_bstar": 0,
        "meta_mean_motion_dot": -4.6e-07,
        "meta_mean_motion_ddot": 0,
        "tle_line1": "1 32276U 07052B   25338.71406258 -.00000046  00000+0  00000+0 0  9997",
        "tle_line2": "2 32276  65.7035 322.5994 0011257 311.6840  47.4656  2.13103047140931"
      },
      "geometry": {
        "type": "Point",
        "coordinates": [
          -19.00999910119153,
          34.98939846354627
        ]
      }
    },
    {
      "type": "Feature",
      "properties": {
        "norad_id": 32384,
        "name": "GPS BIIRM-5 (PRN 29)",
        "group": "gnss",
        "lat": 54.099388376204324,
        "lon": -4.374926630747907,
        "alt_km": 20162.73895235453,
        "timestamp": "2025-12-05T16:54:14.894111+00:00",
        "meta_object_name": "GPS BIIRM-5 (PRN 29)",
        "meta_object_id": "2007-062A",
        "meta_epoch": "2025-12-05T07:59:29.428800",
        "meta_mean_motion": 2.00576795,
        "meta_eccentricity": 0.00322138,
        "meta_inclination": 55.1888,
        "meta_ra_of_asc_node": 281.943,
        "meta_arg_of_pericenter": 162.7364,
        "meta_mean_anomaly": 9.9869,
        "meta_ephemeris_type": 0,
        "meta_classification_type": "U",
        "meta_norad_cat_id": 32384,
        "meta_element_set_no": 999,
        "meta_rev_at_epoch": 13162,
        "meta_bstar": 0,
        "meta_mean_motion_dot": -3.8e-07,
        "meta_mean_motion_ddot": 0,
        "tle_line1": "1 32384U 07062A   25339.33297950 -.00000038  00000+0  00000+0 0  9995",
        "tle_line2": "2 32384  55.1888 281.9430 0032213 162.7364   9.9869  2.00576795131629"
      },
      "geometry": {
        "type": "Point",
        "coordinates": [
          -4.374926630747907,
          54.099388376204324
        ]
      }
    }
  ]
}